GEOSCAN 3 (RS92S3)      
1 64893U 25155T   26197.57604245  .00010850  00000+0  30808-3 0  9991
2 64893  97.4556 167.8190 0008563  83.8065 276.4154 15.36339537 85368
INNOSAT 3 (RS92S0)      
1 64894U 25155U   26197.58932016  .00025107  00000+0  51698-3 0  9994
2 64894  97.4500 169.8378 0008209  87.3682 272.8507 15.45887754 85506
KNACKSAT-2              
1 67683U 98067XZ  26197.40997144  .00033790  00000+0  37622-3 0  9997
2 67683  51.6275 147.1984 0007922 331.8653  28.1912 15.62488251 24844
