OBJECT_NAME,OBJECT_ID,EPOCH,MEAN_MOTION,ECCENTRICITY,INCLINATION,RA_OF_ASC_NODE,ARG_OF_PERICENTER,MEAN_ANOMALY,EPHEMERIS_TYPE,CLASSIFICATION_TYPE,NORAD_CAT_ID,ELEMENT_SET_NO,REV_AT_EPOCH,BSTAR,MEAN_MOTION_DOT,MEAN_MOTION_DDOT
GEOSCAN 3 (RS92S3),2025-155T,2026-07-16T13:49:30.067680,15.36339537,.00085633,97.4556,167.8190,83.8065,276.4154,0,U,64893,999,8536,.3080799E-3,.1085E-3,0
INNOSAT 3 (RS92S0),2025-155U,2026-07-16T14:08:37.261824,15.45887754,.0008209,97.4500,169.8378,87.3682,272.8507,0,U,64894,999,8550,.51697724E-3,.25107E-3,0
KNACKSAT-2,1998-067XZ,2026-07-16T09:50:21.532416,15.62488251,.00079229,51.6275,147.1984,331.8653,28.1912,0,U,67683,999,2484,.37621677E-3,.3379E-3,0
